X,Y,OBJECTID,NAME,LINES,ATCOCODE,MODES,ACCESSIBILITY,NIGHT_TUBE,NETWORK,DATASET_LAST_UPDATED,FULL_NAME,latitude,longitude
532108.3512,181274.1885,111,St. Paul's,Central,940GZZLUSPU,"bus, tube",Not Accessible,Yes,London Underground,2021/11/29 00:00:00+00,St. Paul's station,51.51495287569836,-0.09751775310793301
536500.7831,182534.4935,112,Mile End,"District, Hammersmith & City, Central",940GZZLUMED,"bus, tube",Partially Accessible - Interchange Only,Yes,London Underground,2021/11/29 00:00:00+00,Mile End station,51.52523491887216,-0.03376806329458673
535043.5417,182718.4107,113,Bethnal Green,Central,940GZZLUBLG,"bus, tube",Not Accessible,Yes,London Underground,2021/11/29 00:00:00+00,Bethnal Green station,51.52723766720704,-0.054690301925830964
538367.4374,186075.8536,114,Leyton,Central,940GZZLULYN,"bus, tube",Not Accessible,Yes,London Underground,2021/11/29 00:00:00+00,Leyton station,51.55660356521064,-0.00548715538242508
540156.7713,188804.0413,115,Snaresbrook,Central,940GZZLUSNB,"bus, tube",Not Accessible,Yes,London Underground,2021/11/29 00:00:00+00,Snaresbrook station,51.58067707711796,0.021393426338283037
539279.2763,187404.7354,116,Leytonstone,Central,940GZZLULYS,"bus, tube",Not Accessible,Yes,London Underground,2021/11/29 00:00:00+00,Leytonstone station,51.56832049402845,0.008183219874043522
540673.1526,188253.5073,117,Wanstead,Central,940GZZLUWSD,"bus, tube",Not Accessible,Yes,London Underground,2021/11/29 00:00:00+00,Wanstead station,51.575601612896016,0.02862067776527006
540535.7362,190062.6696,118,South Woodford,Central,940GZZLUSWF,"bus, tube",Partially Accessible,Yes,London Underground,2021/11/29 00:00:00+00,South Woodford station,51.59189245301705,0.027362518469824553
544920.2921,188384.7186,119,Newbury Park,Central,940GZZLUNBP,"tube, bus",Not Accessible,Yes,London Underground,2021/11/29 00:00:00+00,Newbury Park station,51.57570573751537,0.08992082990646239
544798.7557,189493.9487,120,Barkingside,Central,940GZZLUBKE,"tube, bus",Partially Accessible,Yes,London Underground,2021/11/29 00:00:00+00,Barkingside station,51.58570377518845,0.08862520423436726
544935.5979,190594.5734,121,Fairlop,Central,940GZZLUFLP,tube,Not Accessible,Yes,London Underground,2021/11/29 00:00:00+00,Fairlop station,51.59555810733474,0.09105309597165905
540949.981,191740.0184,122,Woodford,Central,940GZZLUWOF,"tube, bus",Fully Accessible,Yes,London Underground,2021/11/29 00:00:00+00,Woodford station,51.60686112070409,0.034011853480109634
541589.7031,192894.9639,123,Roding Valley,Central,940GZZLURVY,tube,Fully Accessible,No,London Underground,2021/11/29 00:00:00+00,Roding Valley station,51.61707861416649,0.043709650244648866
543795.2009,193021.039,124,Chigwell,Central,940GZZLUCWL,"bus, tube",Not Accessible,No,London Underground,2021/11/29 00:00:00+00,Chigwell station,51.61765286220904,0.07559497498919679
526659.2098,181314.4469,125,Paddington,"Hammersmith & City, District, Circle, Bakerloo",940GZZLUPAC,tube,Partially Accessible,No,London Underground,2021/11/29 00:00:00+00,Paddington station,51.51656148278404,-0.17598969226411781
540003.2462,183297.1438,126,Plaistow,"District, Hammersmith & City",940GZZLUPLW,"tube, bus",Not Accessible,No,London Underground,2021/11/29 00:00:00+00,Plaistow station,51.531231341070836,0.01698872064506072
541254.2061,183793.4852,127,Upton Park,"District, Hammersmith & City",940GZZLUUPK,"bus, tube",Not Accessible,No,London Underground,2021/11/29 00:00:00+00,Upton Park station,51.53538004104193,0.035210157654968946
542463.3563,184275.4352,128,East Ham,"District, Hammersmith & City",940GZZLUEHM,"bus, tube",Fully Accessible,No,London Underground,2021/11/29 00:00:00+00,East Ham station,51.53940709913807,0.05282656831164859
510266.398,185851.5993,129,Ruislip Gardens,Central,940GZZLURSG,"tube, bus",Not Accessible,No,London Underground,2021/11/29 00:00:00+00,Ruislip Gardens station,51.56077549009728,-0.4107169346271766
511097.3834,185434.1047,130,South Ruislip,Central,940GZZLUSRP,tube,Not Accessible,No,London Underground,2021/11/29 00:00:00+00,South Ruislip station,51.55686021118094,-0.39886613068870685
513213.3316,184523.8976,131,Northolt,Central,940GZZLUNHT,"tube, bus",Not Accessible,No,London Underground,2021/11/29 00:00:00+00,Northolt station,51.54825926058998,-0.3686504240723909
508378.6627,186795.9974,132,West Ruislip,Central,940GZZLUWRP,tube,Not Accessible,No,London Underground,2021/11/29 00:00:00+00,West Ruislip station,51.569629260588535,-0.4376470760460566
545845.6808,184254.3449,133,Upney,District,940GZZLUUPY,"tube, bus",Fully Accessible,No,London Underground,2021/11/29 00:00:00+00,Upney station,51.53835457119144,0.10155366360748194
523873.7006,187934.037,134,Brent Cross,Northern,940GZZLUBTX,"bus, tube",Not Accessible,Yes,London Underground,2021/11/29 00:00:00+00,Brent Cross station,51.576668983672164,-0.21378475842151295
521318.6301,189961.5203,135,Colindale,Northern,940GZZLUCND,"tube, bus",Not Accessible,Yes,London Underground,2021/11/29 00:00:00+00,Colindale station,51.59544539419719,-0.24993805686953016
520325.5892,190759.9916,136,Burnt Oak,Northern,940GZZLUBTK,"bus, tube",Not Accessible,Yes,London Underground,2021/11/29 00:00:00+00,Burnt Oak station,51.60283417671418,-0.2639936948329539
524045.7492,191450.4807,137,Mill Hill East,Northern,940GZZLUMHL,"tube, bus",Not Accessible,Yes,London Underground,2021/11/29 00:00:00+00,Mill Hill East station,51.60823323268754,-0.21006141993143998
525255.0926,187480.2837,138,Golders Green,Northern,940GZZLUGGN,"tube, bus",Fully Accessible,Yes,London Underground,2021/11/29 00:00:00+00,Golders Green station,51.57228620318889,-0.19402225224523736
525278.0259,190668.344,139,Finchley Central,Northern,940GZZLUFYC,"tube, bus",Fully Accessible,Yes,London Underground,2021/11/29 00:00:00+00,Finchley Central station,51.60093175153772,-0.1925548488048734
515411.8716,185542.0623,140,Sudbury Hill,Piccadilly,940GZZLUSUH,tube,Not Accessible,No,London Underground,2021/11/29 00:00:00+00,Sudbury Hill station,51.556965186588656,-0.3366239412564384
516874.9001,184890.216,141,Sudbury Town,Piccadilly,940GZZLUSUT,"tube, bus",Fully Accessible,No,London Underground,2021/11/29 00:00:00+00,Sudbury Town station,51.5508058069936,-0.31574648733108523
517574.6349,179353.5326,142,South Ealing,Piccadilly,940GZZLUSEA,"tube, bus",Not Accessible,Yes,London Underground,2021/11/29 00:00:00+00,South Ealing station,51.50089966685759,-0.3075052577072803
519141.6075,182236.2418,143,Park Royal,Piccadilly,940GZZLUPKR,"tube, bus",Not Accessible,No,London Underground,2021/11/29 00:00:00+00,Park Royal station,51.52647996490141,-0.2839675301560002
517996.164,183795.164,144,Alperton,Piccadilly,940GZZLUALP,"tube, bus",Not Accessible,No,London Underground,2021/11/29 00:00:00+00,Alperton station,51.54073096355843,-0.2999493499725131
528213.2383,179816.7241,145,Hyde Park Corner,Piccadilly,940GZZLUHPC,"tube, bus",Not Accessible,Yes,London Underground,2021/11/29 00:00:00+00,Hyde Park Corner station,51.50275155049571,-0.15414966922837547
527709.677,179635.9859,146,Knightsbridge,Piccadilly,940GZZLUKNB,"tube, bus",Not Accessible,Yes,London Underground,2021/11/29 00:00:00+00,Knightsbridge station,51.50124118729131,-0.16146611606618974
529980.4296,180824.482,147,Leicester Square,"Piccadilly, Northern",940GZZLULSQ,"tube, bus",Not Accessible,Yes,London Underground,2021/11/29 00:00:00+00,Leicester Square station,51.51140465728604,-0.1283321344299994
530250.6062,181025.0034,148,Covent Garden,Piccadilly,940GZZLUCGN,tube,Not Accessible,Yes,London Underground,2021/11/29 00:00:00+00,Covent Garden station,51.51314450844451,-0.12436702786860558
530229.0927,182127.7234,149,Russell Square,Piccadilly,940GZZLURSQ,"tube, bus",Not Accessible,Yes,London Underground,2021/11/29 00:00:00+00,Russell Square station,51.523059183326126,-0.12426978102082559
530907.4434,185449.7238,150,Holloway Road,Piccadilly,940GZZLUHWY,"tube, bus",Not Accessible,Yes,London Underground,2021/11/29 00:00:00+00,Holloway Road station,51.552755764486484,-0.11326351342118741
531305.0253,186112.0969,151,Arsenal,Piccadilly,940GZZLUASL,tube,Not Accessible,Yes,London Underground,2021/11/29 00:00:00+00,Arsenal station,51.55861585603557,-0.10728530327692842
529355.1742,192497.9148,152,Arnos Grove,Piccadilly,940GZZLUASG,"tube, bus",Not Accessible,Yes,London Underground,2021/11/29 00:00:00+00,Arnos Grove station,51.616452477945074,-0.13304517429093152
529675.8503,194264.9911,153,Southgate,Piccadilly,940GZZLUSGT,"tube, bus",Not Accessible,Yes,London Underground,2021/11/29 00:00:00+00,Southgate station,51.63225854371172,-0.12776253938530333
528140.5216,196370.2056,154,Cockfosters,Piccadilly,940GZZLUCKS,"bus, tube",Not Accessible,Yes,London Underground,2021/11/29 00:00:00+00,Cockfosters station,51.65152862765704,-0.1491631467827762
529390.306,195935.2144,155,Oakwood,Piccadilly,910GENFCOAK,"bus, national-rail, tube",Fully Accessible,Yes,London Underground,2021/11/29 00:00:00+00,Oakwood station,51.64733362819432,-0.1312689387217083
532047.6613,187481.79,156,Manor House,Piccadilly,940GZZLUMRH,"bus, tube",Not Accessible,Yes,London Underground,2021/11/29 00:00:00+00,Manor House station,51.57075126410131,-0.09606483069595886
530958.661,180802.8296,157,Temple,"District, Circle",940GZZLUTMP,"tube, bus",Not Accessible,No,London Underground,2021/11/29 00:00:00+00,Temple station,51.510984403715106,-0.1142517165435643
531693.8776,180893.0855,158,Blackfriars,"District, Circle",940GZZLUBKF,tube,Fully Accessible,No,London Underground,2021/11/29 00:00:00+00,Blackfriars station,51.511624767475574,-0.10362963813725404
532354.1684,180931.5632,159,Mansion House,"District, Circle",940GZZLUMSH,"tube, bus",Not Accessible,No,London Underground,2021/11/29 00:00:00+00,Mansion House station,51.51181640319618,-0.0941057921336224
532611.4757,180900.065,160,Cannon Street,"District, Circle",940GZZLUCST,tube,Partially Accessible,No,London Underground,2021/11/29 00:00:00+00,Cannon Street station,51.511473069259004,-0.09041192056785428
533579.4477,180755.3849,161,Tower Hill,"District, Circle",940GZZLUTWH,tube,Not Accessible,No,London Underground,2021/11/29 00:00:00+00,Tower Hill station,51.50994511580926,-0.07652627141943265
533613.1509,181262.2955,162,Aldgate,"Metropolitan, Circle",940GZZLUALD,"bus, tube",Not Accessible,No,London Underground,2021/11/29 00:00:00+00,Aldgate station,51.51449244157988,-0.07584896688802716
533093.853,181566.9186,163,Liverpool Street,"Metropolitan, Central, Circle, Hammersmith & City",940GZZLULVT,tube,Partially Accessible,Yes,London Underground,2021/11/29 00:00:00+00,Liverpool Street station,51.51735237101747,-0.08321330923554981
532667.8252,181668.245,164,Moorgate,"Metropolitan, Northern, Circle, Hammersmith & City",940GZZLUMGT,tube,Not Accessible,No,London Underground,2021/11/29 00:00:00+00,Moorgate station,51.51836305552554,-0.08931153515551986
532004.2025,181856.3297,165,Barbican,"Metropolitan, Circle, Hammersmith & City",940GZZLUBBN,"tube, bus",Not Accessible,No,London Underground,2021/11/29 00:00:00+00,Barbican station,51.520208600153815,-0.09879996291215272
531559.9989,181873.9267,166,Farringdon,"Metropolitan, Circle, Hammersmith & City",940GZZLUFCN,tube,Fully Accessible,No,London Underground,2021/11/29 00:00:00+00,Farringdon station,51.52047027577585,-0.10519198867818319
530174.7976,182874.7747,167,King's Cross St. Pancras,"Metropolitan, Northern, Piccadilly, Circle, Victoria, Hammersmith & City",940GZZLUKSX,tube,Fully Accessible,Yes,London Underground,2021/11/29 00:00:00+00,King's Cross St. Pancras station,51.52978514307588,-0.12477613021792937
529416.5999,182393.382,168,Euston Square,"Metropolitan, Circle, Hammersmith & City",940GZZLUESQ,"tube, bus",Partially Accessible - Interchange Only,No,London Underground,2021/11/29 00:00:00+00,Euston Square station,51.525633154752434,-0.13587687351584876
527954.6729,182063.5675,169,Baker Street,"Metropolitan, Bakerloo, Circle, Jubilee, Hammersmith & City",940GZZLUBST,"bus, tube",Partially Accessible - Interchange Only,Yes,London Underground,2021/11/29 00:00:00+00,Baker Street station,51.523002003710786,-0.15705815977299536
527220.0675,181696.8814,170,Edgware Road (Circle Line),Circle,940GZZLUERC,"bus, tube",Partially Accessible - Interchange Only,No,London Underground,2021/11/29 00:00:00+00,Edgware Road (Circle Line) station,51.519872451298454,-0.16777316638890663
526703.6907,181197.8431,171,Paddington,"Hammersmith & City, District, Circle, Bakerloo",940GZZLUPAC,tube,Partially Accessible,No,London Underground,2021/11/29 00:00:00+00,Paddington station,51.515503613589594,-0.17539086258650635
525842.957,180822.6462,172,Bayswater,"District, Circle",940GZZLUBWT,"tube, bus",Not Accessible,No,London Underground,2021/11/29 00:00:00+00,Bayswater station,51.51232394663449,-0.1879225224209523
525578.3546,179494.3165,173,High Street Kensington,"District, Circle",940GZZLUHSK,"tube, bus",Partially Accessible - Interchange Only,No,London Underground,2021/11/29 00:00:00+00,High Street Kensington station,51.50044509893272,-0.19220609592532
526182.7589,178846.4895,174,Gloucester Road,"District, Piccadilly, Circle",940GZZLUGTR,"bus, tube",Not Accessible,Yes,London Underground,2021/11/29 00:00:00+00,Gloucester Road station,51.49448863919926,-0.18373468987431066
526917.564,178820.259,175,South Kensington,"District, Piccadilly, Circle",940GZZLUSKS,"bus, tube",Partially Accessible - Interchange Only,Yes,London Underground,2021/11/29 00:00:00+00,South Kensington station,51.49408858708188,-0.17316504691138465
520293.2801,178723.6802,176,Chiswick Park,District,940GZZLUCWP,"bus, tube",Not Accessible,No,London Underground,2021/11/29 00:00:00+00,Chiswick Park station,51.49466748590177,-0.2685715255005445
525282.3792,172099.7465,177,Wimbledon Park,District,940GZZLUWIP,tube,Not Accessible,No,London Underground,2021/11/29 00:00:00+00,Wimbledon Park station,51.434055248289106,-0.19908634010842774
524381.7165,174869.93,178,East Putney,District,940GZZLUEPY,"tube, bus",Not Accessible,No,London Underground,2021/11/29 00:00:00+00,East Putney station,51.459149587092405,-0.2110636822805433
524684.9763,178398.0589,179,West Kensington,District,940GZZLUWKN,"tube, bus",Not Accessible,No,London Underground,2021/11/29 00:00:00+00,West Kensington station,51.490790555082114,-0.20545700029973246
524984.5495,176646.7489,180,Parsons Green,District,940GZZLUPSG,tube,Not Accessible,No,London Underground,2021/11/29 00:00:00+00,Parsons Green station,51.47498535708651,-0.20176352486363486
523307.8235,180748.4162,181,White City,Central,940GZZLUWCY,"bus, tube",Not Accessible,Yes,London Underground,2021/11/29 00:00:00+00,White City station,51.51221526250129,-0.22446214525403585
523719.5706,179883.5582,182,Shepherd's Bush,Central,940GZZLUSBC,tube,Not Accessible,Yes,London Underground,2021/11/29 00:00:00+00,Shepherd's Bush station,51.50435277171324,-0.21883487498389048
524626.2477,180217.3517,183,Holland Park,Central,940GZZLUHPK,"bus, tube",Not Accessible,Yes,London Underground,2021/11/29 00:00:00+00,Holland Park station,51.50715357353159,-0.20566045316838816
547627.5438,184527.341,184,Becontree,District,940GZZLUBEC,"tube, bus",Not Accessible,No,London Underground,2021/11/29 00:00:00+00,Becontree station,51.54034470776377,0.12734178482833172
528998.7715,179129.9345,185,Victoria,"District, Circle, Victoria",940GZZLUVIC,tube,Partially Accessible,Yes,London Underground,2021/11/29 00:00:00+00,Victoria station,51.49640097859262,-0.1430892898009483
531052.3817,175428.6555,186,Brixton,Victoria,940GZZLUBXN,tube,Fully Accessible,Yes,London Underground,2021/11/29 00:00:00+00,Brixton station,51.462667093564654,-0.1148949328839154
529670.6464,178332.5964,187,Pimlico,Victoria,940GZZLUPCO,"tube, bus",Not Accessible,Yes,London Underground,2021/11/29 00:00:00+00,Pimlico station,51.48908197245837,-0.13370871250340682
530336.7953,177973.0048,188,Vauxhall,Victoria,940GZZLUVXL,tube,Not Accessible,Yes,London Underground,2021/11/29 00:00:00+00,Vauxhall station,51.48569743810508,-0.12425212298282634
529248.7448,182266.0339,189,Warren Street,"Northern, Victoria",940GZZLUWRR,"tube, bus",Not Accessible,Yes,London Underground,2021/11/29 00:00:00+00,Warren Street station,51.524527123997764,-0.13834177714005547
550293.9749,185030.2705,190,Dagenham East,District,940GZZLUDGE,"tube, bus",Not Accessible,No,London Underground,2021/11/29 00:00:00+00,Dagenham East station,51.54416043622836,0.16597604681459316
552542.0054,185716.1058,191,Elm Park,District,940GZZLUEPK,"bus, tube",Fully Accessible,No,London Underground,2021/11/29 00:00:00+00,Elm Park station,51.54971988694186,0.1986662037147447
553944.498,186240.2941,192,Hornchurch,District,940GZZLUHCH,"tube, bus",Not Accessible,No,London Underground,2021/11/29 00:00:00+00,Hornchurch station,51.55404895710731,0.21910684007400003
555088.411,186770.1083,193,Upminster Bridge,District,940GZZLUUPB,"tube, bus",Not Accessible,No,London Underground,2021/11/29 00:00:00+00,Upminster Bridge station,51.558496054141195,0.23582667980199287
523197.0859,180064.2324,194,Shepherd's Bush Market,"Hammersmith & City, Circle",940GZZLUSBM,tube,Not Accessible,No,London Underground,2021/11/29 00:00:00+00,Shepherd's Bush Market station,51.506090541894764,-0.22629592219219585
523183.913,179607.8456,195,Goldhawk Road,"Hammersmith & City, Circle",940GZZLUGHK,"bus, tube",Not Accessible,No,London Underground,2021/11/29 00:00:00+00,Goldhawk Road station,51.50199179519617,-0.22664486415404567
523762.9916,180897.8333,196,Latimer Road,"Hammersmith & City, Circle",940GZZLULRD,"tube, bus",Not Accessible,No,London Underground,2021/11/29 00:00:00+00,Latimer Road station,51.51345866399962,-0.21785393577321283
524234.8749,181339.0615,197,Ladbroke Grove,"Hammersmith & City, Circle",940GZZLULAD,"bus, tube",Not Accessible,No,London Underground,2021/11/29 00:00:00+00,Ladbroke Grove station,51.517320539198884,-0.2109018577576743
525833.8943,181570.6391,198,Royal Oak,"Hammersmith & City, Circle",940GZZLURYO,"bus, tube",Not Accessible,No,London Underground,2021/11/29 00:00:00+00,Royal Oak station,51.5190481301195,-0.18778627332991857
525534.3012,178551.8071,199,Earl's Court,"District, Piccadilly",940GZZLUECT,"tube, bus",Fully Accessible,Yes,London Underground,2021/11/29 00:00:00+00,Earl's Court station,51.49198454803539,-0.19317540262977806
524547.4749,183200.2402,200,Queen's Park,Bakerloo,940GZZLUQPS,tube,Partially Accessible - Interchange Only,No,London Underground,2021/11/29 00:00:00+00,Queen's Park station,51.53397821009533,-0.2057416029735368
525284.9146,180456.3574,201,Notting Hill Gate,"District, Central, Circle",940GZZLUNHG,"bus, tube",Not Accessible,Yes,London Underground,2021/11/29 00:00:00+00,Notting Hill Gate station,51.50915601257397,-0.1960899733626562
526710.5082,180773.3476,202,Lancaster Gate,Central,940GZZLULGT,"tube, bus",Not Accessible,Yes,London Underground,2021/11/29 00:00:00+00,Lancaster Gate station,51.5116871957834,-0.17544510185673504
527960.1312,181017.4747,203,Marble Arch,Central,940GZZLUMBA,"tube, bus",Not Accessible,Yes,London Underground,2021/11/29 00:00:00+00,Marble Arch station,51.51359976087709,-0.15735899068029333
528490.674,181117.635,204,Bond Street,"Central, Jubilee",940GZZLUBND,"tube, bus",Fully Accessible,Yes,London Underground,2021/11/29 00:00:00+00,Bond Street station,51.51437958002912,-0.14968114257894552
516378.3501,183314.9891,205,Perivale,Central,940GZZLUPVL,"bus, tube",Not Accessible,No,London Underground,2021/11/29 00:00:00+00,Perivale station,51.53675092166309,-0.323425169229821
514763.0955,183928.0519,206,Greenford,Central,940GZZLUGFD,tube,Partially Accessible - Interchange Only,No,London Underground,2021/11/29 00:00:00+00,Greenford station,51.54259127112356,-0.3465040750206398
520828.4021,181956.9398,207,North Acton,Central,940GZZLUNAN,"bus, tube",Not Accessible,No,London Underground,2021/11/29 00:00:00+00,North Acton station,51.523611766196794,-0.2597600781194744
524519.2741,175886.506,208,Putney Bridge,District,940GZZLUPYB,"tube, bus",Not Accessible,No,London Underground,2021/11/29 00:00:00+00,Putney Bridge station,51.468255468258455,-0.2087270375114135
532710.1551,181119.8978,209,Bank,"Waterloo & City, Northern, Central",940GZZLUBNK,tube,Not Accessible,Yes,London Underground,2021/11/29 00:00:00+00,Bank station,51.513425435909184,-0.08890808727118067
529046.6139,181236.3369,210,Oxford Circus,"Central, Bakerloo, Victoria",940GZZLUOXC,"tube, bus",Partially Accessible - Interchange Only,Yes,London Underground,2021/11/29 00:00:00+00,Oxford Circus station,51.515319726422334,-0.14163045969608393
530512.0615,181525.0709,211,Holborn,"Central, Piccadilly",940GZZLUHBN,"tube, bus",Not Accessible,Yes,London Underground,2021/11/29 00:00:00+00,Holborn station,51.51757813511811,-0.1204164211277835
531123.9465,181615.4655,212,Chancery Lane,Central,940GZZLUCHL,"tube, bus",Not Accessible,Yes,London Underground,2021/11/29 00:00:00+00,Chancery Lane station,51.5182489035083,-0.11156930260294398
535456.6419,179467.0078,213,Canada Water,Jubilee,940GZZLUCWR,tube,Fully Accessible,Yes,London Underground,2021/11/29 00:00:00+00,Canada Water station,51.49792096344705,-0.04998716495699117
534459.7378,179416.2232,214,Bermondsey,Jubilee,940GZZLUBMY,"tube, bus",Fully Accessible,Yes,London Underground,2021/11/29 00:00:00+00,Bermondsey station,51.49770238120655,-0.06435917646629342
537677.3398,180139.7318,215,Canary Wharf,Jubilee,940GZZLUCYF,tube,Fully Accessible,Yes,London Underground,2021/11/29 00:00:00+00,Canary Wharf station,51.503430115405735,-0.01775363971134798
539215.8219,179859.3744,216,North Greenwich,Jubilee,940GZZLUNGW,tube,Fully Accessible,Yes,London Underground,2021/11/29 00:00:00+00,North Greenwich station,51.50053431205636,0.004287576712353579
539428.3256,181377.274,217,Canning Town,Jubilee,940GZZLUCGT,tube,Fully Accessible,No,London Underground,2021/11/29 00:00:00+00,Canning Town station,51.51412171801386,0.007946698289702285
524583.2751,184644.8518,218,Kilburn,Jubilee,940GZZLUKBN,"tube, bus",Fully Accessible,Yes,London Underground,2021/11/29 00:00:00+00,Kilburn station,51.546953022454446,-0.20471489160119857
525592.1984,184652.8993,219,West Hampstead,Jubilee,940GZZLUWHP,tube,Not Accessible,Yes,London Underground,2021/11/29 00:00:00+00,West Hampstead station,51.54680191570396,-0.19016960275566852
526663.6914,184334.9639,220,Swiss Cottage,Jubilee,940GZZLUSWC,"bus, tube",Not Accessible,Yes,London Underground,2021/11/29 00:00:00+00,Swiss Cottage station,51.54370542648981,-0.1748398347754523
526220.4473,184716.2096,221,Finchley Road,"Metropolitan, Jubilee",940GZZLUFYR,"bus, tube",Partially Accessible - Interchange Only,Yes,London Underground,2021/11/29 00:00:00+00,Finchley Road station,51.54723083836693,-0.18109153879636955
526787.9528,170368.2575,222,Colliers Wood,Northern,940GZZLUCSD,"bus, tube",Not Accessible,Yes,London Underground,2021/11/29 00:00:00+00,Colliers Wood station,51.418159716964155,-0.17805799608697154
529363.5176,186721.2423,223,Archway,Northern,940GZZLUACY,"bus, tube",Not Accessible,Yes,London Underground,2021/11/29 00:00:00+00,Archway station,51.564538192507875,-0.13505202452388373
527433.7399,171443.2507,224,Tooting Broadway,Northern,940GZZLUTBY,"tube, bus",Not Accessible,Yes,London Underground,2021/11/29 00:00:00+00,Tooting Broadway station,51.42767600459314,-0.16838983681417422
528047.2745,172373.6505,225,Tooting Bec,Northern,940GZZLUTBC,"tube, bus",Not Accessible,Yes,London Underground,2021/11/29 00:00:00+00,Tooting Bec station,51.43589927439104,-0.15923362533504307
528834.0334,174322.7074,226,Clapham South,Northern,940GZZLUCPS,"tube, bus",Not Accessible,Yes,London Underground,2021/11/29 00:00:00+00,Clapham South station,51.45323695245537,-0.14721241263243415
529504.8104,175338.2492,227,Clapham Common,Northern,940GZZLUCPC,"tube, bus",Not Accessible,Yes,London Underground,2021/11/29 00:00:00+00,Clapham Common station,51.46221051259464,-0.13719253566731834
530038.9661,175743.4515,228,Clapham North,Northern,940GZZLUCPN,"tube, bus",Partially Accessible - Interchange Only,Yes,London Underground,2021/11/29 00:00:00+00,Clapham North station,51.465729600608796,-0.12935895070321768
529537.2731,181836.5931,229,Goodge Street,Northern,940GZZLUGDG,"tube, bus",Not Accessible,Yes,London Underground,2021/11/29 00:00:00+00,Goodge Street station,51.52060184277374,-0.13434290236565805
529815.381,181382.4962,230,Tottenham Court Road,"Central, Northern",940GZZLUTCR,"bus, tube",Fully Accessible,Yes,London Underground,2021/11/29 00:00:00+00,Tottenham Court Road station,51.51645724635472,-0.13050387554071918
526372.6132,185761.4121,231,Hampstead,Northern,940GZZLUHTD,"tube, bus",Not Accessible,Yes,London Underground,2021/11/29 00:00:00+00,Hampstead station,51.55658987988491,-0.17852309354375817
529191.6489,183397.1275,232,Mornington Crescent,Northern,940GZZLUMTC,"bus, tube",Not Accessible,Yes,London Underground,2021/11/29 00:00:00+00,Mornington Crescent station,51.53470494233912,-0.13874979864115142
528202.4569,184390.607,233,Chalk Farm,Northern,940GZZLUCFM,"bus, tube",Not Accessible,Yes,London Underground,2021/11/29 00:00:00+00,Chalk Farm station,51.54385835909765,-0.15264214766916714
529009.0105,185127.159,234,Kentish Town,Northern,940GZZLUKSH,tube,Not Accessible,No,London Underground,2021/11/29 00:00:00+00,Kentish Town station,51.55029387744978,-0.140747939982143
529148.7021,185859.6201,235,Tufnell Park,Northern,940GZZLUTFP,"bus, tube",Not Accessible,Yes,London Underground,2021/11/29 00:00:00+00,Tufnell Park station,51.55684430975303,-0.13846565572304817
531170.2991,177564.9022,236,Oval,Northern,940GZZLUOVL,"bus, tube",Not Accessible,Yes,London Underground,2021/11/29 00:00:00+00,Oval station,51.48183745351276,-0.1124062491167189
531598.8041,178299.5563,237,Kennington,Northern,940GZZLUKNG,"tube, bus",Partially Accessible - Interchange Only,Yes,London Underground,2021/11/29 00:00:00+00,Kennington station,51.48834003191998,-0.10596541286234977
521720.9991,181197.769,238,East Acton,Central,940GZZLUEAN,"bus, tube",Not Accessible,Yes,London Underground,2021/11/29 00:00:00+00,East Acton station,51.51659745054098,-0.24716252199343647
499633.5338,197564.355,239,Chalfont & Latimer,Metropolitan,940GZZLUCAL,tube,Fully Accessible,No,London Underground,2021/11/29 00:00:00+00,Chalfont & Latimer station,51.668031426229064,-0.5607234520464772
502580.7743,196094.9067,240,Chorleywood,Metropolitan,940GZZLUCYD,tube,Fully Accessible,No,London Underground,2021/11/29 00:00:00+00,Chorleywood station,51.65429398451199,-0.5185530310182179
523373.9519,180519.1771,241,Wood Lane,"Hammersmith & City, Circle",940GZZLUWLA,tube,Fully Accessible,No,London Underground,2021/11/29 00:00:00+00,Wood Lane station,51.51014064093161,-0.22358983250307257
531583.269,184873.9348,242,Highbury & Islington,Victoria,940GZZLUHAI,tube,Partially Accessible,Yes,London Underground,2021/11/29 00:00:00+00,Highbury & Islington station,51.54742439246029,-0.1037367147978821
535760.6278,189370.2981,243,Blackhorse Road,Victoria,940GZZLUBLR,tube,Not Accessible,Yes,London Underground,2021/11/29 00:00:00+00,Blackhorse Road station,51.58684059439298,-0.041793873795219
534484.4517,189470.7161,244,Tottenham Hale,Victoria,940GZZLUTMH,tube,Fully Accessible,Yes,London Underground,2021/11/29 00:00:00+00,Tottenham Hale station,51.58804870362208,-0.060164650653709045
525903.0798,180593.604,245,Queensway,Central,940GZZLUQWY,"bus, tube",Not Accessible,Yes,London Underground,2021/11/29 00:00:00+00,Queensway station,51.51025217607452,-0.1871382982400705
541777.5666,193891.179,246,Buckhurst Hill,Central,940GZZLUBKH,"tube, bus",Not Accessible,Yes,London Underground,2021/11/29 00:00:00+00,Buckhurst Hill station,51.62598289702701,0.04682407515656278
542318.8891,195612.3879,247,Loughton,Central,940GZZLULGN,"tube, bus",Not Accessible,Yes,London Underground,2021/11/29 00:00:00+00,Loughton station,51.64131224348848,0.055338101699993474
545079.8923,191498.1822,248,Hainault,Central,940GZZLUHLT,"tube, bus",Fully Accessible,Yes,London Underground,2021/11/29 00:00:00+00,Hainault station,51.6036401975141,0.09350819615879127
544967.3103,192558.6913,249,Grange Hill,Central,940GZZLUGGH,"tube, bus",Not Accessible,No,London Underground,2021/11/29 00:00:00+00,Grange Hill station,51.61319815416052,0.09232184221334147
544272.9229,196121.7821,250,Debden,Central,940GZZLUDBN,tube,Partially Accessible,No,London Underground,2021/11/29 00:00:00+00,Debden station,51.64539187939041,0.08376689656236408
546209.4306,201538.4,251,Epping,Central,940GZZLUEPG,tube,Fully Accessible,No,London Underground,2021/11/29 00:00:00+00,Epping station,51.69356092525262,0.11399961918418978
541834.4862,188358.0005,252,Redbridge,Central,940GZZLURBG,"bus, tube",Not Accessible,Yes,London Underground,2021/11/29 00:00:00+00,Redbridge station,51.57624981381887,0.04541027413893245
522189.8506,185144.0201,253,Dollis Hill,Jubilee,940GZZLUDOH,"bus, tube",Not Accessible,Yes,London Underground,2021/11/29 00:00:00+00,Dollis Hill station,51.55196194099087,-0.2390407657243783
519358.6236,188712.7984,254,Kingsbury,Jubilee,940GZZLUKBY,"tube, bus",Fully Accessible,Yes,London Underground,2021/11/29 00:00:00+00,Kingsbury station,51.58464108724419,-0.2786447440288865
518808.7824,189763.2019,255,Queensbury,Jubilee,940GZZLUQBY,"bus, tube",Not Accessible,Yes,London Underground,2021/11/29 00:00:00+00,Queensbury station,51.594197452092956,-0.28622177754727357
517336.1598,187060.2129,256,South Kenton,Bakerloo,940GZZLUSKT,tube,Not Accessible,No,London Underground,2021/11/29 00:00:00+00,South Kenton station,51.57021290910052,-0.3083734923397722
515443.4908,189445.8062,257,Harrow & Wealdstone,Bakerloo,940GZZLUHAW,tube,Fully Accessible,No,London Underground,2021/11/29 00:00:00+00,Harrow & Wealdstone station,51.59204382510434,-0.33488645488903895
519615.5138,184218.2261,258,Stonebridge Park,Bakerloo,940GZZLUSGP,tube,Not Accessible,No,London Underground,2021/11/29 00:00:00+00,Stonebridge Park station,51.54419264973253,-0.27646679490996795
530419.3254,180395.8714,259,Embankment,"District, Bakerloo, Northern, Circle",940GZZLUEMB,tube,Not Accessible,Yes,London Underground,2021/11/29 00:00:00+00,Embankment station,51.50745185655672,-0.12216953430795809
514320.5446,186361.2273,260,South Harrow,Piccadilly,940GZZLUSHH,"tube, bus",Not Accessible,No,London Underground,2021/11/29 00:00:00+00,South Harrow station,51.564549549948175,-0.352092756907947
523257.1398,182789.7245,261,Kensal Green,Bakerloo,940GZZLUKSL,tube,Not Accessible,No,London Underground,2021/11/29 00:00:00+00,Kensal Green station,51.53057177755812,-0.2244787816465949
520874.9265,183414.1869,262,Harlesden,Bakerloo,940GZZLUHSN,tube,Not Accessible,No,London Underground,2021/11/29 00:00:00+00,Harlesden station,51.536698482952616,-0.2585901442236522
518182.8112,185084.7099,263,Wembley Central,Bakerloo,940GZZLUWYC,tube,Fully Accessible,No,London Underground,2021/11/29 00:00:00+00,Wembley Central station,51.552281640277045,-0.29682655954893367
517667.5472,186197.8735,264,North Wembley,Bakerloo,940GZZLUNWY,tube,Not Accessible,No,London Underground,2021/11/29 00:00:00+00,North Wembley station,51.56239371368014,-0.30388264583420155
526459.0141,181526.6432,265,Paddington (H&C Line),Hammersmith & City,940GZZLUPAH,tube,Partially Accessible,No,London Underground,2021/11/29 00:00:00+00,Paddington (H&C Line) station,51.51851327530939,-0.17879726299159768
519196.0695,176731.8028,266,Kew Gardens,District,940GZZLUKWG,tube,Fully Accessible,No,London Underground,2021/11/29 00:00:00+00,Kew Gardens station,51.476997744586534,-0.2850409164740549
519845.2545,178387.5838,267,Gunnersbury,District,940GZZLUGBY,tube,Partially Accessible - Interchange Only,No,London Underground,2021/11/29 00:00:00+00,Gunnersbury station,51.49174191093942,-0.2751361823945696
529612.6446,180665.5299,268,Piccadilly Circus,"Bakerloo, Piccadilly",940GZZLUPCC,"bus, tube",Not Accessible,Yes,London Underground,2021/11/29 00:00:00+00,Piccadilly Circus station,51.51006061519837,-0.13368738643164682
530057.6992,180378.3819,269,Charing Cross,"Bakerloo, Northern",940GZZLUCHX,tube,Fully Accessible,Yes,London Underground,2021/11/29 00:00:00+00,Charing Cross station,51.50737795073343,-0.127383683220383
531908.9646,179141.8869,270,Elephant & Castle,"Northern, Bakerloo",940GZZLUEAC,tube,Partially Accessible,No,London Underground,2021/11/29 00:00:00+00,Elephant & Castle station,51.495837467877884,-0.10118627610279991
531133.5815,179456.1932,271,Lambeth North,Bakerloo,940GZZLULBN,"bus, tube",Not Accessible,No,London Underground,2021/11/29 00:00:00+00,Lambeth North station,51.49884222880147,-0.1122327661467621
527046.7044,181758.9463,272,Edgware Road (Bakerloo),Bakerloo,940GZZLUERB,"tube, bus",Not Accessible,No,London Underground,2021/11/29 00:00:00+00,Edgware Road (Bakerloo) station,51.520469201471975,-0.1702481178612421
525940.2151,182761.7737,273,Maida Vale,Bakerloo,940GZZLUMVL,tube,Not Accessible,No,London Underground,2021/11/29 00:00:00+00,Maida Vale station,51.529729085515065,-0.1858293287116459
525357.7486,183328.0363,274,Kilburn Park,Bakerloo,940GZZLUKPK,"tube, bus",Not Accessible,No,London Underground,2021/11/29 00:00:00+00,Kilburn Park station,51.534947545387965,-0.19402032290999016
527458.7894,181957.2876,275,Marylebone,Bakerloo,940GZZLUMYB,tube,Not Accessible,No,London Underground,2021/11/29 00:00:00+00,Marylebone station,51.52215890700221,-0.1642402663187997
528699.2958,182113.1305,276,Regent's Park,Bakerloo,940GZZLURGP,"tube, bus",Not Accessible,No,London Underground,2021/11/29 00:00:00+00,Regent's Park station,51.523278384742916,-0.14631312455288237
528090.7172,178654.7576,277,Sloane Square,"District, Circle",940GZZLUSSQ,"bus, tube",Not Accessible,No,London Underground,2021/11/29 00:00:00+00,Sloane Square station,51.49233693461084,-0.15633533949456813
522571.1867,178722.46,278,Ravenscourt Park,District,940GZZLURVP,"bus, tube",Not Accessible,No,London Underground,2021/11/29 00:00:00+00,Ravenscourt Park station,51.494167735828476,-0.23577535697187463
523460.9489,178502.7234,279,Hammersmith (Dist&Picc Line),"District, Piccadilly",940GZZLUHSD,tube,Fully Accessible,Yes,London Underground,2021/11/29 00:00:00+00,Hammersmith (Dist&Picc Line) station,51.49199951963805,-0.2230418838988801
527353.7983,185088.8974,280,Belsize Park,Northern,940GZZLUBZP,"bus, tube",Not Accessible,Yes,London Underground,2021/11/29 00:00:00+00,Belsize Park station,51.55032570077622,-0.16462098681641182
531014.9221,190428.3965,281,Wood Green,Piccadilly,940GZZLUWOG,"tube, bus",Not Accessible,Yes,London Underground,2021/11/29 00:00:00+00,Wood Green station,51.59747146598728,-0.1098590191239906
529984.4864,191469.2726,282,Bounds Green,Piccadilly,940GZZLUBDS,"tube, bus",Not Accessible,Yes,London Underground,2021/11/29 00:00:00+00,Bounds Green station,51.607063786857424,-0.12434197787111509
530195.6727,179668.2264,283,Westminster,"District, Circle, Jubilee",940GZZLUWSM,tube,Fully Accessible,Yes,London Underground,2021/11/29 00:00:00+00,Westminster station,51.50096429583881,-0.12565865262198006
524341.6907,179162.4239,284,Kensington (Olympia),District,940GZZLUKOY,tube,Fully Accessible,No,London Underground,2021/11/29 00:00:00+00,Kensington (Olympia) station,51.49773548808454,-0.21012996310043258
529498.32,182668.2502,285,Euston,"Northern, Victoria",940GZZLUEUS,tube,Partially Accessible,Yes,London Underground,2021/11/29 00:00:00+00,Euston station,51.52808458451346,-0.13459860915117344
530968.1802,179961.9154,286,Waterloo,"Waterloo & City, Bakerloo, Northern, Jubilee",940GZZLUWLO,tube,Partially Accessible,Yes,London Underground,2021/11/29 00:00:00+00,Waterloo station,51.50342525720376,-0.11442663408154648
556146.114,186868.4063,287,Upminster,District,940GZZLUUPM,tube,Fully Accessible,No,London Underground,2021/11/29 00:00:00+00,Upminster station,51.55908765486933,0.2511155158113151
539130.9809,182944.6443,288,West Ham,"District, Hammersmith & City, Jubilee",940GZZLUWHM,tube,Fully Accessible,Yes,London Underground,2021/11/29 00:00:00+00,West Ham station,51.528279231688785,0.004282725845967298
537176.4746,188994.3326,289,Walthamstow Central,Victoria,940GZZLUWWL,tube,Not Accessible,Yes,London Underground,2021/11/29 00:00:00+00,Walthamstow Central station,51.58311960662003,-0.021517020394659706
517989.3481,180932.5267,290,Ealing Broadway,"District, Central",940GZZLUEBY,tube,Partially Accessible - Interchange Only,Yes,London Underground,2021/11/29 00:00:00+00,Ealing Broadway station,51.515004541097596,-0.30100554864828455
519477.6064,179592.1471,291,Acton Town,"District, Piccadilly",940GZZLUACT,"bus, tube",Fully Accessible,Yes,London Underground,2021/11/29 00:00:00+00,Acton Town station,51.502645550838345,-0.28002176408560253
518895.9685,180345.9962,292,Ealing Common,"District, Piccadilly",940GZZLUECM,"tube, bus",Partially Accessible - Interchange Only,No,London Underground,2021/11/29 00:00:00+00,Ealing Common station,51.50954325566991,-0.28814377331699476
529007.2306,180294.8348,293,Green Park,"Piccadilly, Victoria, Jubilee",940GZZLUGPK,"bus, tube",Fully Accessible,Yes,London Underground,2021/11/29 00:00:00+00,Green Park station,51.50686769929983,-0.14254189011088972
531329.8862,186775.3328,294,Finsbury Park,"Piccadilly, Victoria",940GZZLUFPK,tube,Partially Accessible - Interchange Only,Yes,London Underground,2021/11/29 00:00:00+00,Finsbury Park station,51.56457021452154,-0.10667934765407984
530460.3355,176432.8874,295,Stockwell,"Northern, Victoria",940GZZLUSKW,"bus, tube",Partially Accessible - Interchange Only,Yes,London Underground,2021/11/29 00:00:00+00,Stockwell station,51.47182845729262,-0.12304218836550133
525669.7872,168602.3713,296,Morden,Northern,940GZZLUMDN,"tube, bus",Fully Accessible,Yes,London Underground,2021/11/29 00:00:00+00,Morden station,51.40253820130653,-0.19475485350439264
523325.1097,178697.9863,297,Hammersmith (H&C Line),Hammersmith & City,940GZZLUHSC,tube,Fully Accessible,No,London Underground,2021/11/29 00:00:00+00,Hammersmith (H&C Line) station,51.4937839941985,-0.22492935877885228
509608.3222,175362.5618,298,Hatton Cross,Piccadilly,940GZZLUHNX,"tube, bus",Not Accessible,Yes,London Underground,2021/11/29 00:00:00+00,Hatton Cross station,51.46662784627764,-0.4234642103862573
512207.7403,176196.9816,299,Hounslow West,Piccadilly,940GZZLUHWT,"bus, tube",Fully Accessible,Yes,London Underground,2021/11/29 00:00:00+00,Hounslow West station,51.47361867347103,-0.38579398315426067
513567.6962,175971.3647,300,Hounslow Central,Piccadilly,940GZZLUHWC,"tube, bus",Not Accessible,Yes,London Underground,2021/11/29 00:00:00+00,Hounslow Central station,51.471319799634685,-0.3662939172379912
514254.5504,176202.9292,301,Hounslow East,Piccadilly,940GZZLUHWE,"bus, tube",Fully Accessible,Yes,London Underground,2021/11/29 00:00:00+00,Hounslow East station,51.47326292270874,-0.35633446056928547
514520.2731,177096.8334,302,Osterley,Piccadilly,940GZZLUOSY,"tube, bus",Not Accessible,Yes,London Underground,2021/11/29 00:00:00+00,Osterley station,51.481243468780896,-0.3522207467968353
517196.8059,179206.2903,303,Northfields,Piccadilly,940GZZLUNFD,"tube, bus",Not Accessible,Yes,London Underground,2021/11/29 00:00:00+00,Northfields station,51.49965470504596,-0.3129949283376789
524045.7583,178327.6646,304,Barons Court,"District, Piccadilly",940GZZLUBSC,tube,Partially Accessible - Interchange Only,Yes,London Underground,2021/11/29 00:00:00+00,Barons Court station,51.49029837209942,-0.21468405012348488
525454.6092,177301.7324,305,Fulham Broadway,District,940GZZLUFBY,"bus, tube",Fully Accessible,No,London Underground,2021/11/29 00:00:00+00,Fulham Broadway station,51.480767775659345,-0.19476643999333496
525380.8439,178024.4907,306,West Brompton,District,940GZZLUWBN,tube,Partially Accessible,No,London Underground,2021/11/29 00:00:00+00,West Brompton station,51.487279564113926,-0.19557175970386037
521859.3453,178788.8474,307,Stamford Brook,District,940GZZLUSFB,"bus, tube",Not Accessible,No,London Underground,2021/11/29 00:00:00+00,Stamford Brook station,51.49491810505981,-0.24600122518353917
521265.8017,178779.0811,308,Turnham Green,"District, Piccadilly",940GZZLUTNG,"tube, bus",Partially Accessible - Interchange Only,No,London Underground,2021/11/29 00:00:00+00,Turnham Green station,51.49495783192351,-0.25455033012373335
533936.1921,181374.788,309,Aldgate East,"Hammersmith & City, District",940GZZLUADE,"bus, tube",Not Accessible,No,London Underground,2021/11/29 00:00:00+00,Aldgate East station,51.51542691621207,-0.07115364166807008
534644.6261,181850.3379,310,Whitechapel,"District, Hammersmith & City",940GZZLUWPL,tube,Not Accessible,No,London Underground,2021/11/29 00:00:00+00,Whitechapel station,51.51953209733413,-0.06076871394741355
537089.8973,182735.9513,311,Bow Road,"District, Hammersmith & City",940GZZLUBWR,"bus, tube",Not Accessible,No,London Underground,2021/11/29 00:00:00+00,Bow Road station,51.52690266558641,-0.025203212169073518
519315.8795,186388.4845,312,Wembley Park,"Metropolitan, Jubilee",940GZZLUWYP,"bus, tube",Fully Accessible,Yes,London Underground,2021/11/29 00:00:00+00,Wembley Park station,51.56376083873252,-0.28005006150968614
521342.3348,185397.9068,313,Neasden,Jubilee,940GZZLUNDN,"bus, tube",Not Accessible,Yes,London Underground,2021/11/29 00:00:00+00,Neasden station,51.554426400499,-0.2511708953836603
526120.3494,193989.2184,314,Totteridge & Whetstone,Northern,940GZZLUTAW,"tube, bus",Not Accessible,Yes,London Underground,2021/11/29 00:00:00+00,Totteridge & Whetstone station,51.63058779485697,-0.17920546040980762
508081.9464,174430.1626,315,Heathrow Terminal 4,Piccadilly,940GZZLUHR4,tube,Fully Accessible,Yes,London Underground,2021/11/29 00:00:00+00,Heathrow Terminal 4 station,51.45854050640026,-0.4457139637605831
519372.862,181295.9254,316,West Acton,Central,940GZZLUWTA,"bus, tube",Not Accessible,Yes,London Underground,2021/11/29 00:00:00+00,West Acton station,51.517980197246935,-0.2809538703054758
538530.0487,184394.6448,317,Stratford,"Central, Jubilee",940GZZLUSTD,tube,Fully Accessible,Yes,London Underground,2021/11/29 00:00:00+00,Stratford station,51.541456474970374,-0.00380449322830081
505661.0034,184161.1754,318,Uxbridge,"Metropolitan, Piccadilly",940GZZLUUXB,"bus, tube",Fully Accessible,No,London Underground,2021/11/29 00:00:00+00,Uxbridge station,51.546462227221156,-0.47763478482927546
507602.2269,185034.9423,319,Hillingdon,"Metropolitan, Piccadilly",940GZZLUHGD,"bus, tube",Fully Accessible,No,London Underground,2021/11/29 00:00:00+00,Hillingdon station,51.55394931648673,-0.44938394891092587
508092.3561,185937.6131,320,Ickenham,"Metropolitan, Piccadilly",940GZZLUICK,"tube, bus",Not Accessible,No,London Underground,2021/11/29 00:00:00+00,Ickenham station,51.56196897211081,-0.4420401367813713
509473.5706,187004.4778,321,Ruislip,"Metropolitan, Piccadilly",940GZZLURSP,"bus, tube",Partially Accessible,No,London Underground,2021/11/29 00:00:00+00,Ruislip station,51.57129177940531,-0.4217906669062554
510159.7912,187262.3667,322,Ruislip Manor,"Metropolitan, Piccadilly",940GZZLURSM,"bus, tube",Not Accessible,No,London Underground,2021/11/29 00:00:00+00,Ruislip Manor station,51.57347614215052,-0.41181243175639204
510307.602,190238.0424,323,Northwood Hills,Metropolitan,940GZZLUNWH,"tube, bus",Not Accessible,No,London Underground,2021/11/29 00:00:00+00,Northwood Hills station,51.600192233720485,-0.4087463545441836
514199.9396,188029.3693,324,West Harrow,Metropolitan,940GZZLUWHW,tube,Not Accessible,No,London Underground,2021/11/29 00:00:00+00,West Harrow station,51.57956661616709,-0.3532902802999659
512952.7879,187515.0782,325,Rayners Lane,"Metropolitan, Piccadilly",940GZZLURYL,"bus, tube",Partially Accessible - Interchange Only,No,London Underground,2021/11/29 00:00:00+00,Rayners Lane station,51.57519536192321,-0.37144621402033035
513541.1687,188613.2295,326,North Harrow,Metropolitan,940GZZLUNHA,"bus, tube",Not Accessible,No,London Underground,2021/11/29 00:00:00+00,North Harrow station,51.584947105274864,-0.3626047009909961
512236.1384,189460.7521,327,Pinner,Metropolitan,940GZZLUPNR,"tube, bus",Fully Accessible,No,London Underground,2021/11/29 00:00:00+00,Pinner station,51.592825567877355,-0.3811619189424988
515346.2006,188038.3989,328,Harrow-on-the-Hill,Metropolitan,940GZZLUHOH,tube,Partially Accessible - Interchange Only,No,London Underground,2021/11/29 00:00:00+00,Harrow-on-the-Hill station,51.57941460314499,-0.3367522322346984
516643.3006,187963.5235,329,Northwick Park,Metropolitan,940GZZLUNKP,"tube, bus",Partially Accessible - Interchange Only,No,London Underground,2021/11/29 00:00:00+00,Northwick Park station,51.57847500401296,-0.3180663388463142
517562.6021,192572.9608,330,Stanmore,Jubilee,940GZZLUSTM,"tube, bus",Fully Accessible,Yes,London Underground,2021/11/29 00:00:00+00,Stanmore station,51.619710927804014,-0.30326247710286663
518186.8967,191252.07,331,Canons Park,Jubilee,940GZZLUCPK,"bus, tube",Not Accessible,Yes,London Underground,2021/11/29 00:00:00+00,Canons Park station,51.60770907048488,-0.29469410620588665
526735.2854,183390.8717,332,St. John's Wood,Jubilee,940GZZLUSJW,"tube, bus",Not Accessible,Yes,London Underground,2021/11/29 00:00:00+00,St. John's Wood station,51.535204969887026,-0.17414757419359148
531592.3412,180073.9905,333,Southwark,Jubilee,940GZZLUSWK,"bus, tube",Fully Accessible,Yes,London Underground,2021/11/29 00:00:00+00,Southwark station,51.50428757953955,-0.1053973366341105
532683.0478,180188.8523,334,London Bridge,"Northern, Jubilee",940GZZLULNB,tube,Fully Accessible,Yes,London Underground,2021/11/29 00:00:00+00,London Bridge station,51.50506500549169,-0.08964851723570803
524800.3804,170683.6656,335,Wimbledon,District,940GZZLUWIM,tube,Fully Accessible,No,London Underground,2021/11/29 00:00:00+00,Wimbledon station,51.42143496760067,-0.2065150560922173
525546.1518,191626.9482,336,West Finchley,Northern,940GZZLUWFN,tube,Fully Accessible,Yes,London Underground,2021/11/29 00:00:00+00,West Finchley station,51.60948689407505,-0.1883426849145045
529024.8784,177247.2655,379,Battersea Power Station,Northern,,tube,,Yes,London Underground,2021/11/29 00:00:00+00,Battersea Power Station station,51.47947593806482,-0.1434008238398738
529989.2567,177345.6288,380,Nine Elms,Northern,,tube,,Yes,London Underground,2021/11/29 00:00:00+00,Nine Elms station,51.48013931574215,-0.12948529538068704
519550.4974,191940.4673,384,Edgware,Northern,940GZZLUEGW,"bus, tube",Fully Accessible,Yes,London Underground,2021/11/29 00:00:00+00,Edgware station,51.61360827412279,-0.27477777123740055
518828.0459,181227.756,385,North Ealing,Piccadilly,940GZZLUNEN,"bus, tube",Not Accessible,Yes,London Underground,2021/11/29 00:00:00+00,North Ealing station,51.51748228438489,-0.28882511595801363
530558.3633,184969.7784,386,Caledonian Road,Piccadilly,940GZZLUCAR,"tube, bus",Fully Accessible,Yes,London Underground,2021/11/29 00:00:00+00,Caledonian Road station,51.548523531923465,-0.11847347641237947
532911.9191,180824.0761,387,Monument,"District, Circle",940GZZLUMMT,"tube, bus",Partially Accessible - Interchange Only,No,London Underground,2021/11/29 00:00:00+00,Monument station,51.510719671133025,-0.0861136343254292
528837.973,182179.8579,388,Great Portland Street,"Metropolitan, Circle, Hammersmith & City",940GZZLUGPS,"bus, tube",Not Accessible,No,London Underground,2021/11/29 00:00:00+00,Great Portland Street station,51.5238464562031,-0.14429097119738585
524726.397,173312.8185,389,Southfields,District,940GZZLUSFS,"bus, tube",Fully Accessible,No,London Underground,2021/11/29 00:00:00+00,Southfields station,51.44507985784134,-0.20665347710133408
549022.5413,184709.7413,390,Dagenham Heathway,District,940GZZLUDGY,"tube, bus",Fully Accessible,No,London Underground,2021/11/29 00:00:00+00,Dagenham Heathway station,51.541617327806044,0.14751917346847768
507585.6702,175839.6403,391,Heathrow Terminals 1-2-3,Piccadilly,940GZZLUHRC,tube,Fully Accessible,Yes,London Underground,2021/11/29 00:00:00+00,Heathrow Terminals 1-2-3 station,51.47130365988794,-0.4524258114844232
524901.4238,181755.9263,392,Westbourne Park,"Hammersmith & City, Circle",940GZZLUWSP,"bus, tube",Not Accessible,No,London Underground,2021/11/29 00:00:00+00,Westbourne Park station,51.520920062506256,-0.20115293263288997
518527.3157,182634.1785,393,Hanger Lane,Central,940GZZLUHGR,"tube, bus",Not Accessible,No,London Underground,2021/11/29 00:00:00+00,Hanger Lane station,51.530185529338254,-0.29268452494969566
543273.6779,188430.2076,394,Gants Hill,Central,940GZZLUGTH,"bus, tube",Not Accessible,Yes,London Underground,2021/11/29 00:00:00+00,Gants Hill station,51.576535009203205,0.0661941322556114
538049.5634,182523.5136,395,Bromley-by-Bow,"District, Hammersmith & City",940GZZLUBBB,"bus, tube",Not Accessible,No,London Underground,2021/11/29 00:00:00+00,Bromley-by-Bow station,51.52476012571751,-0.011461459462545905
518077.1529,175161.4717,396,Richmond,District,940GZZLURMD,tube,Fully Accessible,No,London Underground,2021/11/29 00:00:00+00,Richmond station,51.463118722979786,-0.30166912590765976
526112.4036,182039.408,397,Warwick Avenue,Bakerloo,940GZZLUWKA,"bus, tube",Not Accessible,No,London Underground,2021/11/29 00:00:00+00,Warwick Avenue station,51.523198862105225,-0.18360675558678666
529646.6061,179498.0741,398,St. James's Park,"District, Circle",940GZZLUSJP,tube,Not Accessible,No,London Underground,2021/11/29 00:00:00+00,St. James's Park station,51.49956127784571,-0.13362702165334794
531512.729,189637.9518,399,Turnpike Lane,Piccadilly,940GZZLUTPN,"bus, tube",Not Accessible,Yes,London Underground,2021/11/29 00:00:00+00,Turnpike Lane station,51.590252328536295,-0.10297211354184564
544358.8052,184382.179,400,Barking,"District, Hammersmith & City",940GZZLUBKG,tube,Fully Accessible,No,London Underground,2021/11/29 00:00:00+00,Barking station,51.539885097485445,0.08018208014455507
525736.3947,169989.4476,433,South Wimbledon,Northern,940GZZLUSWN,"bus, tube",Not Accessible,Yes,London Underground,2021/11/29 00:00:00+00,South Wimbledon station,51.41498929257675,-0.19330652029319115
516333.5188,178693.009,434,Boston Manor,Piccadilly,940GZZLUBOS,"tube, bus",Not Accessible,Yes,London Underground,2021/11/29 00:00:00+00,Boston Manor station,51.49521967497009,-0.3255952087308767
535621.3116,182135.557,435,Stepney Green,"District, Hammersmith & City",940GZZLUSGN,"bus, tube",Not Accessible,No,London Underground,2021/11/29 00:00:00+00,Stepney Green station,51.52186169216427,-0.046590903238870635
525030.1427,196180.3282,436,High Barnet,Northern,940GZZLUHBT,"tube, bus",Fully Accessible,Yes,London Underground,2021/11/29 00:00:00+00,High Barnet station,51.65052191222787,-0.19416624688190184
511153.3473,187621.8123,437,Eastcote,"Metropolitan, Piccadilly",940GZZLUEAE,"tube, bus",Not Accessible,No,London Underground,2021/11/29 00:00:00+00,Eastcote station,51.57651196983275,-0.3973680168635398
496371.5781,198181.3279,438,Amersham,Metropolitan,940GZZLUAMS,tube,Partially Accessible,No,London Underground,2021/11/29 00:00:00+00,Amersham station,51.674145407023566,-0.6077052134228341
523328.566,184883.4222,439,Willesden Green,Jubilee,940GZZLUWIG,"bus, tube",Not Accessible,Yes,London Underground,2021/11/29 00:00:00+00,Willesden Green station,51.54937241454188,-0.22271672855408045
528480.3274,173244.4808,440,Balham,Northern,940GZZLUBLM,tube,Not Accessible,Yes,London Underground,2021/11/29 00:00:00+00,Balham station,51.44362737290879,-0.15269122947563046
528910.2525,183893.5725,441,Camden Town,Northern,940GZZLUCTN,"bus, tube",Partially Accessible - Interchange Only,Yes,London Underground,2021/11/29 00:00:00+00,Camden Town station,51.53923059833878,-0.14262297026124668
505109.3841,175923.8204,442,Heathrow Terminal 5,Piccadilly,940GZZLUHR5,tube,Fully Accessible,No,London Underground,2021/11/29 00:00:00+00,Heathrow Terminal 5 station,51.47252521879832,-0.4880396396312294
521858.4876,182959.8201,470,Willesden Junction,Bakerloo,940GZZLUWJN,tube,Fully Accessible,No,London Underground,2021/11/29 00:00:00+00,Willesden Junction station,51.532403751974165,-0.24457316031635945
527221.696,189183.6545,471,East Finchley,Northern,940GZZLUEFY,"tube, bus",Not Accessible,Yes,London Underground,2021/11/29 00:00:00+00,East Finchley station,51.58715402026014,-0.1650441219039354
528534.7964,188180.7911,472,Highgate,Northern,940GZZLUHGT,"bus, tube",Not Accessible,Yes,London Underground,2021/11/29 00:00:00+00,Highgate station,51.577843953751554,-0.14646788226539456
496079.3711,201633.0847,473,Chesham,Metropolitan,940GZZLUCSM,tube,Fully Accessible,No,London Underground,2021/11/29 00:00:00+00,Chesham station,51.70522161796168,-0.610980402394735
505715.6061,194601.2017,474,Rickmansworth,Metropolitan,940GZZLURKW,tube,Partially Accessible,No,London Underground,2021/11/29 00:00:00+00,Rickmansworth station,51.640288366349886,-0.4737058106627786
508606.4789,193502.8492,475,Moor Park,Metropolitan,940GZZLUMPK,tube,Not Accessible,No,London Underground,2021/11/29 00:00:00+00,Moor Park station,51.62986629669337,-0.4322869639728738
509229.7103,191418.7435,476,Northwood,Metropolitan,940GZZLUNOW,"bus, tube",Not Accessible,No,London Underground,2021/11/29 00:00:00+00,Northwood station,51.611014101617926,-0.423935459314158
507909.4599,195402.8332,477,Croxley,Metropolitan,940GZZLUCXY,tube,Not Accessible,No,London Underground,2021/11/29 00:00:00+00,Croxley station,51.647077178580105,-0.4417680549234005
509569.47,196595.9617,478,Watford,Metropolitan,940GZZLUWAF,tube,Not Accessible,No,London Underground,2021/11/29 00:00:00+00,Watford station,51.65748010048808,-0.41741206352620125
532439.9633,179751.4611,479,Borough,Northern,940GZZLUBOR,"bus, tube",Partially Accessible,No,London Underground,2021/11/29 00:00:00+00,Borough station,51.501191365275396,-0.0933129512735992
532764.4507,182418.8111,480,Old Street,Northern,940GZZLUODS,tube,Not Accessible,No,London Underground,2021/11/29 00:00:00+00,Old Street station,51.52508527631207,-0.08763720259182553
531560.5615,183099.9257,481,Angel,Northern,940GZZLUAGL,"tube, bus",Not Accessible,No,London Underground,2021/11/29 00:00:00+00,Angel station,51.53148758749647,-0.10472643840232035
522985.7318,188635.9596,482,Hendon Central,Northern,940GZZLUHCL,"tube, bus",Fully Accessible,Yes,London Underground,2021/11/29 00:00:00+00,Hendon Central station,51.58317142482077,-0.2263467398232382
533642.8986,188930.9134,483,Seven Sisters,Victoria,940GZZLUSVS,tube,Not Accessible,Yes,London Underground,2021/11/29 00:00:00+00,Seven Sisters station,51.58339794718637,-0.0725100279127818
545541.5127,199100.8285,484,Theydon Bois,Central,940GZZLUTHB,tube,Partially Accessible,No,London Underground,2021/11/29 00:00:00+00,Theydon Bois station,51.67183247428325,0.10332766399974942
516727.9918,188314.4716,485,Kenton,Bakerloo,940GZZLUKEN,tube,Not Accessible,No,London Underground,2021/11/29 00:00:00+00,Kenton station,51.58161162102014,-0.3167281554174247
525718.4454,192588.1262,486,Woodside Park,Northern,940GZZLUWOP,"tube, bus",Fully Accessible,No,London Underground,2021/11/29 00:00:00+00,Woodside Park station,51.61808637995583,-0.1855114363532535
518249.3308,187281.8291,487,Preston Road,Metropolitan,940GZZLUPRD,"tube, bus",Not Accessible,No,London Underground,2021/11/29 00:00:00+00,Preston Road station,51.57201407560158,-0.295129262413792
